start=new Date('2021-09-29T00:00:00.000Z').valueOf();
sats=[{"CLASSIFICATION_TYPE":"U","EPOCH":"2021-09-28T12:34:08.467104","LAUNCH_DATE":"2021-03-24","ECCENTRICITY":"0.00018260","PERIOD":"95.592","MEAN_MOTION_DOT":"0.00000562","REV_AT_EPOCH":"2998","CENTER_NAME":"EARTH","GP_ID":"185717095","RCS_SIZE":"LARGE","APOAPSIS":"548.455","OBJECT_TYPE":"PAYLOAD","SITE":"AFETR","BSTAR":"0.00005663100000","FILE":"3132662","TIME_SYSTEM":"UTC","ELEMENT_SET_NO":"999","OBJECT_ID":"2021-024BE","COUNTRY_CODE":"US","MEAN_MOTION":"15.06407542","SEMIMAJOR_AXIS":"6925.325","MEAN_MOTION_DDOT":"0.0000000000000","OBJECT_NAME":"STARLINK-2299","EPHEMERIS_TYPE":"0","MEAN_ANOMALY":"259.1517","ARG_OF_PERICENTER":"100.9678","RA_OF_ASC_NODE":"58.2944","REF_FRAME":"TEME","NORAD_CAT_ID":"48029","PERIAPSIS":"545.926","DECAY_DATE":null,"TLE_LINE1":"1 48029U 21024BE  21271.52370911  .00000562  00000-0  56631-4 0  9991","TLE_LINE2":"2 48029  53.0569  58.2944 0001826 100.9678 259.1517 15.06407542 29985","MEAN_ELEMENT_THEORY":"SGP4","INCLINATION":"53.0569"},{"COUNTRY_CODE":"US","MEAN_MOTION":"15.06395257","ELEMENT_SET_NO":"999","OBJECT_ID":"2021-024BF","FILE":"3132662","BSTAR":"0.00005475500000","TIME_SYSTEM":"UTC","SITE":"AFETR","OBJECT_TYPE":"PAYLOAD","APOAPSIS":"548.127","GP_ID":"185716847","RCS_SIZE":"LARGE","CENTER_NAME":"EARTH","MEAN_MOTION_DOT":"0.00000534","PERIOD":"95.592","REV_AT_EPOCH":"2985","ECCENTRICITY":"0.00012980","EPOCH":"2021-09-28T13:13:17.785056","CLASSIFICATION_TYPE":"U","LAUNCH_DATE":"2021-03-24","INCLINATION":"53.0550","TLE_LINE2":"2 48030  53.0550  63.1576 0001298 109.3649 250.7480 15.06395257 29858","MEAN_ELEMENT_THEORY":"SGP4","DECAY_DATE":null,"TLE_LINE1":"1 48030U 21024BF  21271.55090029  .00000534  00000-0  54755-4 0  9999","PERIAPSIS":"546.329","NORAD_CAT_ID":"48030","REF_FRAME":"TEME","RA_OF_ASC_NODE":"63.1576","ARG_OF_PERICENTER":"109.3649","MEAN_ANOMALY":"250.7480","EPHEMERIS_TYPE":"0","SEMIMAJOR_AXIS":"6925.363","MEAN_MOTION_DDOT":"0.0000000000000","OBJECT_NAME":"STARLINK-2268"},{"APOAPSIS":"352.729","GP_ID":"185725884","RCS_SIZE":"LARGE","CENTER_NAME":"EARTH","PERIOD":"91.531","MEAN_MOTION_DOT":"-0.00065533","REV_AT_EPOCH":"3047","ECCENTRICITY":"0.00046070","CLASSIFICATION_TYPE":"U","EPOCH":"2021-09-28T22:00:00.999936","LAUNCH_DATE":"2021-03-24","MEAN_MOTION":"15.73245714","COUNTRY_CODE":"US","ELEMENT_SET_NO":"999","OBJECT_ID":"2021-024BG","FILE":"3133037","BSTAR":"-0.00046478000000","TIME_SYSTEM":"UTC","SITE":"AFETR","OBJECT_TYPE":"PAYLOAD","REF_FRAME":"TEME","RA_OF_ASC_NODE":"347.3723","ARG_OF_PERICENTER":"351.3352","MEAN_ANOMALY":"54.0748","EPHEMERIS_TYPE":"0","SEMIMAJOR_AXIS":"6727.765","OBJECT_NAME":"STARLINK-2267","MEAN_MOTION_DDOT":"0.0000000000000","INCLINATION":"53.0456","TLE_LINE2":"2 48031  53.0456 347.3723 0004607 351.3352  54.0748 15.73245714 30470","MEAN_ELEMENT_THEORY":"SGP4","DECAY_DATE":null,"TLE_LINE1":"1 48031U 21024BG  21271.91667824 -.00065533  00000-0 -46478-3 0  9997","PERIAPSIS":"346.530","NORAD_CAT_ID":"48031"},{"MEAN_ANOMALY":"60.0501","EPHEMERIS_TYPE":"0","MEAN_MOTION_DDOT":"0.0000000000000","OBJECT_NAME":"STARLINK-2297","SEMIMAJOR_AXIS":"6727.802","RA_OF_ASC_NODE":"347.3684","REF_FRAME":"TEME","ARG_OF_PERICENTER":"345.9921","PERIAPSIS":"346.542","NORAD_CAT_ID":"48032","INCLINATION":"53.0455","MEAN_ELEMENT_THEORY":"SGP4","TLE_LINE2":"2 48032  53.0455 347.3684 0004645 345.9921  60.0501 15.73232783 30475","TLE_LINE1":"1 48032U 21024BH  21271.91667824 -.00062407  00000-0 -44247-3 0  9997","DECAY_DATE":null,"REV_AT_EPOCH":"3047","MEAN_MOTION_DOT":"-0.00062407","PERIOD":"91.531","ECCENTRICITY":"0.00046450","LAUNCH_DATE":"2021-03-24","EPOCH":"2021-09-28T22:00:00.999936","CLASSIFICATION_TYPE":"U","APOAPSIS":"352.792","RCS_SIZE":"LARGE","GP_ID":"185725882","CENTER_NAME":"EARTH","TIME_SYSTEM":"UTC","BSTAR":"-0.00044247000000","FILE":"3133037","SITE":"AFETR","OBJECT_TYPE":"PAYLOAD","MEAN_MOTION":"15.73232783","COUNTRY_CODE":"US","OBJECT_ID":"2021-024BH","ELEMENT_SET_NO":"999"},{"MEAN_MOTION":"15.06399023","COUNTRY_CODE":"US","ELEMENT_SET_NO":"999","OBJECT_ID":"2021-024BJ","OBJECT_TYPE":"PAYLOAD","FILE":"3132662","BSTAR":"0.00003312100000","TIME_SYSTEM":"UTC","SITE":"AFETR","GP_ID":"185716595","RCS_SIZE":"LARGE","CENTER_NAME":"EARTH","APOAPSIS":"548.435","ECCENTRICITY":"0.00017600","CLASSIFICATION_TYPE":"U","EPOCH":"2021-09-28T12:32:47.434272","LAUNCH_DATE":"2021-03-24","PERIOD":"95.592","MEAN_MOTION_DOT":"0.00000212","REV_AT_EPOCH":"2998","TLE_LINE2":"2 48033  53.0565  58.3065 0001760 100.5620 259.5568 15.06399023 29985","MEAN_ELEMENT_THEORY":"SGP4","DECAY_DATE":null,"TLE_LINE1":"1 48033U 21024BJ  21271.52277123  .00000212  00000-0  33121-4 0  9998","INCLINATION":"53.0565","NORAD_CAT_ID":"48033","PERIAPSIS":"545.998","REF_FRAME":"TEME","RA_OF_ASC_NODE":"58.3065","ARG_OF_PERICENTER":"100.5620","EPHEMERIS_TYPE":"0","SEMIMAJOR_AXIS":"6925.352","MEAN_MOTION_DDOT":"0.0000000000000","OBJECT_NAME":"STARLINK-2286","MEAN_ANOMALY":"259.5568"},{"NORAD_CAT_ID":"48034","PERIAPSIS":"546.174","TLE_LINE1":"1 48034U 21024BK  21271.73012552 -.00000187  00000-0  63757-5 0  9996","DECAY_DATE":null,"MEAN_ELEMENT_THEORY":"SGP4","TLE_LINE2":"2 48034  53.0566  57.3634 0001505  97.6439 262.4721 15.06398986 29485","INCLINATION":"53.0566","MEAN_MOTION_DDOT":"0.0000000000000","OBJECT_NAME":"STARLINK-2288","SEMIMAJOR_AXIS":"6925.352","EPHEMERIS_TYPE":"0","MEAN_ANOMALY":"262.4721","ARG_OF_PERICENTER":"97.6439","REF_FRAME":"TEME","RA_OF_ASC_NODE":"57.3634","OBJECT_TYPE":"PAYLOAD","SITE":"AFETR","TIME_SYSTEM":"UTC","BSTAR":"0.00000637570000","FILE":"3133037","ELEMENT_SET_NO":"999","OBJECT_ID":"2021-024BK","COUNTRY_CODE":"US","MEAN_MOTION":"15.06398986","LAUNCH_DATE":"2021-03-24","CLASSIFICATION_TYPE":"U","EPOCH":"2021-09-28T17:31:22.844928","ECCENTRICITY":"0.00015050","REV_AT_EPOCH":"2948","MEAN_MOTION_DOT":"-0.00000187","PERIOD":"95.592","CENTER_NAME":"EARTH","RCS_SIZE":"LARGE","GP_ID":"185725888","APOAPSIS":"548.259"},{"REV_AT_EPOCH":"374","PERIOD":"91.529","MEAN_MOTION_DOT":"-0.00085969","LAUNCH_DATE":"2021-03-24","CLASSIFICATION_TYPE":"U","EPOCH":"2021-09-28T14:00:01.000224","ECCENTRICITY":"0.00055220","APOAPSIS":"353.272","CENTER_NAME":"EARTH","RCS_SIZE":"MEDIUM","GP_ID":"185716097","SITE":"AFETR","TIME_SYSTEM":"UTC","BSTAR":"-0.00061170000000","FILE":"3132662","OBJECT_TYPE":"PAYLOAD","ELEMENT_SET_NO":"999","OBJECT_ID":"2021-024BL","COUNTRY_CODE":"US","MEAN_MOTION":"15.73271389","MEAN_ANOMALY":"339.9959","MEAN_MOTION_DDOT":"0.0000000000000","OBJECT_NAME":"STARLINK-2287","SEMIMAJOR_AXIS":"6727.692","EPHEMERIS_TYPE":"0","ARG_OF_PERICENTER":"338.9581","RA_OF_ASC_NODE":"349.0294","REF_FRAME":"TEME","PERIAPSIS":"345.842","NORAD_CAT_ID":"48035","INCLINATION":"53.0471","TLE_LINE1":"1 48035U 21024BL  21271.58334491 -.00085969  00000-0 -61170-3 0  9996","DECAY_DATE":null,"MEAN_ELEMENT_THEORY":"SGP4","TLE_LINE2":"2 48035  53.0471 349.0294 0005522 338.9581 339.9959 15.73271389  3741"},{"CENTER_NAME":"EARTH","RCS_SIZE":"LARGE","GP_ID":"185716347","APOAPSIS":"548.194","LAUNCH_DATE":"2021-03-24","CLASSIFICATION_TYPE":"U","EPOCH":"2021-09-28T12:55:22.289088","ECCENTRICITY":"0.00014130","REV_AT_EPOCH":"2998","MEAN_MOTION_DOT":"0.00001911","PERIOD":"95.592","OBJECT_ID":"2021-024BM","ELEMENT_SET_NO":"999","MEAN_MOTION":"15.06399405","COUNTRY_CODE":"US","OBJECT_TYPE":"PAYLOAD","SITE":"AFETR","TIME_SYSTEM":"UTC","FILE":"3132662","BSTAR":"0.00014718000000","ARG_OF_PERICENTER":"116.8188","RA_OF_ASC_NODE":"58.2298","REF_FRAME":"TEME","OBJECT_NAME":"STARLINK-2295","MEAN_MOTION_DDOT":"0.0000000000000","SEMIMAJOR_AXIS":"6925.350","EPHEMERIS_TYPE":"0","MEAN_ANOMALY":"243.2946","TLE_LINE1":"1 48036U 21024BM  21271.53845242  .00001911  00000-0  14718-3 0  9992","DECAY_DATE":null,"MEAN_ELEMENT_THEORY":"SGP4","TLE_LINE2":"2 48036  53.0572  58.2298 0001413 116.8188 243.2946 15.06399405 29981","INCLINATION":"53.0572","NORAD_CAT_ID":"48036","PERIAPSIS":"546.237"},{"PERIAPSIS":"347.272","NORAD_CAT_ID":"48092","INCLINATION":"53.0447","TLE_LINE2":"2 48092  53.0447 197.1815 0003539   8.7730 351.3349 15.73237743 28612","MEAN_ELEMENT_THEORY":"SGP4","DECAY_DATE":null,"TLE_LINE1":"1 48092U 21027A   21271.42207271  .00015337  00000-0  11329-3 0  9991","MEAN_ANOMALY":"351.3349","EPHEMERIS_TYPE":"0","SEMIMAJOR_AXIS":"6727.788","MEAN_MOTION_DDOT":"0.0000000000000","OBJECT_NAME":"STARLINK-2048","REF_FRAME":"TEME","RA_OF_ASC_NODE":"197.1815","ARG_OF_PERICENTER":"8.7730","BSTAR":"0.00011329000000","FILE":"3132662","TIME_SYSTEM":"UTC","SITE":"AFETR","OBJECT_TYPE":"PAYLOAD","COUNTRY_CODE":"US","MEAN_MOTION":"15.73237743","ELEMENT_SET_NO":"999","OBJECT_ID":"2021-027A","PERIOD":"91.531","MEAN_MOTION_DOT":"0.00015337","REV_AT_EPOCH":"2861","ECCENTRICITY":"0.00035390","EPOCH":"2021-09-28T10:07:47.082144","CLASSIFICATION_TYPE":"U","LAUNCH_DATE":"2021-04-07","APOAPSIS":"352.034","GP_ID":"185716854","RCS_SIZE":"LARGE","CENTER_NAME":"EARTH"},{"OBJECT_ID":"2021-027B","ELEMENT_SET_NO":"999","MEAN_MOTION":"15.06390077","COUNTRY_CODE":"US","OBJECT_TYPE":"PAYLOAD","SITE":"AFETR","TIME_SYSTEM":"UTC","BSTAR":"0.00012925000000","FILE":"3132838","CENTER_NAME":"EARTH","RCS_SIZE":"LARGE","GP_ID":"185721019","APOAPSIS":"548.117","LAUNCH_DATE":"2021-04-07","EPOCH":"2021-09-28T13:16:36.690816","CLASSIFICATION_TYPE":"U","ECCENTRICITY":"0.00012600","REV_AT_EPOCH":"2751","PERIOD":"95.593","MEAN_MOTION_DOT":"0.00001644","TLE_LINE1":"1 48093U 21027B   21271.55320244  .00001644  00000-0  12925-3 0  9991","DECAY_DATE":null,"MEAN_ELEMENT_THEORY":"SGP4","TLE_LINE2":"2 48093  53.0553 248.1547 0001260  56.3376 303.7733 15.06390077 27516","INCLINATION":"53.0553","NORAD_CAT_ID":"48093","PERIAPSIS":"546.371","ARG_OF_PERICENTER":"56.3376","RA_OF_ASC_NODE":"248.1547","REF_FRAME":"TEME","OBJECT_NAME":"STARLINK-2404","MEAN_MOTION_DDOT":"0.0000000000000","SEMIMAJOR_AXIS":"6925.379","EPHEMERIS_TYPE":"0","MEAN_ANOMALY":"303.7733"}];
